SL-16 R/B               
1 25407U 98045B   26089.19798321 -.00000208  00000+0 -80667-4 0  9991
2 25407  71.0098 138.4483 0008033 336.8390  23.2370 14.16193600430007
ISS (ZARYA)             
1 25544U 98067A   26089.16515939  .00012299  00000+0  23377-3 0  9991
2 25544  51.6344 331.1363 0006182 249.8594 110.1729 15.48649502559502
CZ-4B R/B               
1 25732U 99025C   26089.11684664  .00000056  00000+0  48193-4 0  9994
2 25732  98.6585 132.9108 0036007 286.5580  95.7440 14.18269307391065
OKEAN-O                 
1 25860U 99039A   26089.13254362  .00000870  00000+0  12079-3 0  9998
2 25860  97.9400 148.8120 0000856  94.8275 265.3035 14.80368497437413
SL-16 R/B               
1 25861U 99039B   26089.16073227  .00000749  00000+0  10160-3 0  9995
2 25861  97.9921 148.2224 0014660 185.8471 174.2573 14.81759692439899
DELTA 2 R/B             
1 25876U 99041E   26089.04195179  .00001123  00000+0  21979-3 0  9999
2 25876  51.7607 219.9784 0502658  48.4500 315.8423 14.11884377365906
HELIOS 1B               
1 25977U 99064A   26089.16000054  .00002105  00000+0  23706-3 0  9997
2 25977  98.1673 352.0029 0001745  47.3539 312.7823 14.87777269688304
TERRA                   
1 25994U 99068A   26089.19840181  .00000576  00000+0  12633-3 0  9993
2 25994  97.9549 141.8453 0003594 108.9557 342.9004 14.61036640398076
SL-16 R/B               
1 26070U 00006B   26089.14811339  .00000319  00000+0  18640-3 0  9990
2 26070  71.0025  54.8162 0015632 157.8149 202.3653 14.15828223351455
TITAN 4B R/B            
1 26474U 00047B   26089.16894032  .00005128  00000+0  31932-3 0  9998
2 26474  67.9917 342.9173 0039865  11.3871 348.8170 15.09752161396001
ENVISAT                 
1 27386U 02009A   26089.11388237  .00000142  00000+0  59965-4 0  9999
2 27386  98.3761  42.2291 0001211  81.8079 288.6685 14.39044031262114
IDEFIX & ARIANE 42P R/B 
1 27422U 02021B   26089.05223306  .00000328  00000+0  14104-3 0  9993
2 27422  98.5893  27.4179 0012641 124.2025 236.0358 14.31039901246933
